{
  "norad_id": 63139,
  "name": "STARLINK-11628 [DTC]",
  "history": [
    {
      "epoch": "2026-03-28T20:02:22.259904",
      "apogee_km": 357.50102550142674,
      "perigee_km": 353.9050202524113,
      "latitude_deg": 37.83853468079821,
      "longitude_deg": -145.94193344027735,
      "semi_major_axis_km": 6733.840022876919,
      "eccentricity": 0.00026701,
      "inclination_deg": 43.0003,
      "raan_deg": 135.2722,
      "arg_perigee_deg": 307.7372,
      "mean_anomaly_deg": 52.3253,
      "mean_motion_rev_day": 15.71117153
    }
  ]
}